STARLINK-34255          
1 65417U 25192P   26198.90673046  .00006519  00000+0  20384-3 0  9993
2 65417  53.1602 347.3155 0001759 108.0076 252.1118 15.34412066 49324
STARLINK-34997          
1 65418U 25192Q   26197.74953015  .00010684  00000+0  37230-3 0  9998
2 65418  53.1613 352.8952 0001172  94.3362 265.7773 15.30203422 49144
STARLINK-35085          
1 65419U 25192R   26198.79901463  .00009955  00000+0  33196-3 0  9991
2 65419  53.1619 346.6585 0000789 110.1609 249.9478 15.31716839 49326
STARLINK-35138          
1 65420U 25192S   26198.90694381  .00015539  00000+0  51096-3 0  9998
2 65420  53.1599 346.6188 0000994  87.8828 272.2287 15.31730244 49339
STARLINK-35146          
1 65421U 25192T   26198.84636029  .00007800  00000+0  26274-3 0  9999
2 65421  53.1582 346.9456 0000791  87.8413 272.2680 15.31713227 49315
STARLINK-35074          
1 65422U 25192U   26198.85215038  .00016829  00000+0  50852-3 0  9994
2 65422  53.1604 347.6854 0001324 103.9225 256.1925 15.34372621 49310
STARLINK-34837          
1 65423U 25192V   26198.72484843  .00009232  00000+0  30873-3 0  9994
2 65423  53.1606 347.6087 0001629 131.3077 228.8065 15.31719052 49309
STARLINK-34670          
1 65424U 25192W   26198.44518882  .00011823  00000+0  39192-3 0  9997
2 65424  53.1618 348.7085 0001223 109.2017 250.9117 15.31717595 49260
STARLINK-35095          
1 65425U 25192X   26198.68328325  .00008888  00000+0  29767-3 0  9999
2 65425  53.1614 348.0547 0001003  82.3820 277.7296 15.31716728 49297
STARLINK-34883          
1 65426U 25192Y   26198.80411122  .00009849  00000+0  32856-3 0  9993
2 65426  53.1618 347.3887 0000970  85.2136 274.8976 15.31715923 49306
STARLINK-34916          
1 65427U 25192Z   26198.80878082  .00012379  00000+0  40992-3 0  9998
2 65427  53.1613 347.4164 0000576  79.3760 280.7306 15.31706237 49312
STARLINK-35004          
1 65428U 25192AA  26198.79751402  .00008357  00000+0  25817-3 0  9993
2 65428  53.1614 348.0511 0001140  97.5302 262.5830 15.34402064 49302
STARLINK-35014          
1 65429U 25192AB  26198.85002343  .00010990  00000+0  33583-3 0  9999
2 65429  53.1605 347.6714 0000971  99.2894 260.8218 15.34407430 49313
STARLINK-35025          
1 65430U 25192AC  26198.83273477  .00014797  00000+0  44886-3 0  9994
2 65430  53.1603 346.1539 0000563  12.4865 347.6151 15.34353714 49331
STARLINK-35034          
1 65431U 25192AD  26198.78278356  .00019159  00000+0  57657-3 0  9997
2 65431  53.1614 347.9615 0001025 138.5329 221.5751 15.34408325 49309
STARLINK-35142          
1 65434U 25194A   26198.08288177  .00003092  00000+0  21805-3 0  9992
2 65434  97.2839  49.6915 0002166  85.1826 274.9649 15.05655145 49114
STARLINK-34978          
1 65435U 25194B   26198.10227042  .00000849  00000+0  62696-4 0  9991
2 65435  97.2846  49.8373 0002716  87.8382 272.3157 15.05656132 49124
STARLINK-35043          
1 65436U 25194C   26198.83153183  .00001734  00000+0  12684-3 0  9991
2 65436  97.4017  51.8123 0002519  78.7695 281.3815 15.04840264 49255
STARLINK-35080          
1 65437U 25194D   26198.10780772  .00002151  00000+0  15291-3 0  9993
2 65437  97.2843  49.8280 0002856  88.1460 272.0094 15.05658395 49126
STARLINK-35068          
1 65438U 25194E   26198.08841175  .00001471  00000+0  10581-3 0  9997
2 65438  97.2843  49.7018 0002113  88.7688 271.3782 15.05660443 49111
STARLINK-35045          
1 65439U 25194F   26198.04965562  .00002864  00000+0  20225-3 0  9994
2 65439  97.2858  49.7549 0003250  91.8425 268.3175 15.05662142 49114
STARLINK-35050          
1 65440U 25194G   26198.82777348  .00001690  00000+0  12100-3 0  9994
2 65440  97.2836  50.5340 0002393  83.4941 276.6559 15.05657635 49230
STARLINK-35065          
1 65441U 25194H   26198.07735877  .00004199  00000+0  29462-3 0  9999
2 65441  97.2838  49.7167 0001996  91.2606 268.8850 15.05665612 49111
STARLINK-34679          
1 65442U 25194J   26198.10504235  .00002407  00000+0  17064-3 0  9991
2 65442  97.2849  49.8337 0002593  84.8564 275.2959 15.05662534 49122
STARLINK-34678          
1 65443U 25194K   26198.53701132  .00002942  00000+0  20763-3 0  9998
2 65443  97.2844  50.1637 0001862  88.4627 271.6814 15.05663192 49181
STARLINK-35049          
1 65444U 25194L   26198.52316934  .00001056  00000+0  77035-4 0  9990
2 65444  97.2857  50.1821 0002310  97.0183 263.1308 15.05663608 49189
STARLINK-35029          
1 65445U 25194M   26198.51763453  .00001802  00000+0  12876-3 0  9992
2 65445  97.2865  50.1912 0003039  84.7807 275.3768 15.05657569 49189
STARLINK-34991          
1 65446U 25194N   26198.11057464  .00002172  00000+0  15433-3 0  9990
2 65446  97.2854  49.8260 0002583  86.8713 273.2810 15.05658502 49128
STARLINK-34920          
1 65447U 25194P   26198.56470999  .00000589  00000+0  44686-4 0  9995
2 65447  97.2832  50.2791 0002592  85.2705 274.8819 15.05655059 49191
STARLINK-35030          
1 65448U 25194Q   26198.52870404  .00000865  00000+0  63848-4 0  9995
2 65448  97.2851  50.1731 0002211  79.9663 280.1814 15.05663920 49187
