OBJECT_NAME,OBJECT_ID,EPOCH,MEAN_MOTION,ECCENTRICITY,INCLINATION,RA_OF_ASC_NODE,ARG_OF_PERICENTER,MEAN_ANOMALY,EPHEMERIS_TYPE,CLASSIFICATION_TYPE,NORAD_CAT_ID,ELEMENT_SET_NO,REV_AT_EPOCH,BSTAR,MEAN_MOTION_DOT,MEAN_MOTION_DDOT
STARLINK-34255,2025-192P,2026-07-17T21:45:41.511744,15.34412066,.00017597,53.1602,347.3155,108.0076,252.1118,0,U,65417,999,4932,.20384012E-3,.6519E-4,0
STARLINK-34997,2025-192Q,2026-07-16T17:59:19.404960,15.30203422,.00011726,53.1613,352.8952,94.3362,265.7773,0,U,65418,999,4914,.37230041E-3,.10684E-3,0
STARLINK-35085,2025-192R,2026-07-17T19:10:34.864032,15.31716839,.00007899,53.1619,346.6585,110.1609,249.9478,0,U,65419,999,4932,.33195885E-3,.9955E-4,0
STARLINK-35138,2025-192S,2026-07-17T21:45:59.945184,15.31730244,.00009943,53.1599,346.6188,87.8828,272.2287,0,U,65420,999,4933,.51095834E-3,.15539E-3,0
STARLINK-35146,2025-192T,2026-07-17T20:18:45.529056,15.31713227,.00007919,53.1582,346.9456,87.8413,272.2680,0,U,65421,999,4931,.26274344E-3,.78E-4,0
STARLINK-35074,2025-192U,2026-07-17T20:27:05.792832,15.34372621,.00013243,53.1604,347.6854,103.9225,256.1925,0,U,65422,999,4931,.50852498E-3,.16829E-3,0
STARLINK-34837,2025-192V,2026-07-17T17:23:46.904352,15.31719052,.00016295,53.1606,347.6087,131.3077,228.8065,0,U,65423,999,4930,.30872554E-3,.9232E-4,0
STARLINK-34670,2025-192W,2026-07-17T10:41:04.314048,15.31717595,.0001223,53.1618,348.7085,109.2017,250.9117,0,U,65424,999,4926,.39192E-3,.11823E-3,0
STARLINK-35095,2025-192X,2026-07-17T16:23:55.672800,15.31716728,.00010038,53.1614,348.0547,82.3820,277.7296,0,U,65425,999,4929,.29766832E-3,.8888E-4,0
STARLINK-34883,2025-192Y,2026-07-17T19:17:55.209408,15.31715923,.00009708,53.1618,347.3887,85.2136,274.8976,0,U,65426,999,4930,.32855923E-3,.9849E-4,0
STARLINK-34916,2025-192Z,2026-07-17T19:24:38.662848,15.31706237,.00005766,53.1613,347.4164,79.3760,280.7306,0,U,65427,999,4931,.40992245E-3,.12379E-3,0
STARLINK-35004,2025-192AA,2026-07-17T19:08:25.211328,15.34402064,.00011408,53.1614,348.0511,97.5302,262.5830,0,U,65428,999,4930,.25817075E-3,.8357E-4,0
STARLINK-35014,2025-192AB,2026-07-17T20:24:02.024352,15.34407430,.0000971,53.1605,347.6714,99.2894,260.8218,0,U,65429,999,4931,.33582669E-3,.1099E-3,0
STARLINK-35025,2025-192AC,2026-07-17T19:59:08.284128,15.34353714,.00005632,53.1603,346.1539,12.4865,347.6151,0,U,65430,999,4933,.44886081E-3,.14797E-3,0
STARLINK-35034,2025-192AD,2026-07-17T18:47:12.499584,15.34408325,.00010257,53.1614,347.9615,138.5329,221.5751,0,U,65431,999,4930,.57656914E-3,.19159E-3,0
STARLINK-35142,2025-194A,2026-07-17T01:59:20.984928,15.05655145,.0002166,97.2839,49.6915,85.1826,274.9649,0,U,65434,999,4911,.21805E-3,.3092E-4,0
STARLINK-34978,2025-194B,2026-07-17T02:27:16.164288,15.05656132,.0002716,97.2846,49.8373,87.8382,272.3157,0,U,65435,999,4912,.62696E-4,.849E-5,0
STARLINK-35043,2025-194C,2026-07-17T19:57:24.350112,15.04840264,.00025191,97.4017,51.8123,78.7695,281.3815,0,U,65436,999,4925,.12684297E-3,.1734E-4,0
STARLINK-35080,2025-194D,2026-07-17T02:35:14.587008,15.05658395,.0002856,97.2843,49.8280,88.1460,272.0094,0,U,65437,999,4912,.15291E-3,.2151E-4,0
STARLINK-35068,2025-194E,2026-07-17T02:07:18.775200,15.05660443,.0002113,97.2843,49.7018,88.7688,271.3782,0,U,65438,999,4911,.10581E-3,.1471E-4,0
STARLINK-35045,2025-194F,2026-07-17T01:11:30.245568,15.05662142,.00032505,97.2858,49.7549,91.8425,268.3175,0,U,65439,999,4911,.20224522E-3,.2864E-4,0
STARLINK-35050,2025-194G,2026-07-17T19:51:59.628672,15.05657635,.00023939,97.2836,50.5340,83.4941,276.6559,0,U,65440,999,4923,.12099804E-3,.169E-4,0
STARLINK-35065,2025-194H,2026-07-17T01:51:23.797728,15.05665612,.0001996,97.2838,49.7167,91.2606,268.8850,0,U,65441,999,4911,.29462E-3,.4199E-4,0
STARLINK-34679,2025-194J,2026-07-17T02:31:15.659040,15.05662534,.0002593,97.2849,49.8337,84.8564,275.2959,0,U,65442,999,4912,.17064E-3,.2407E-4,0
STARLINK-34678,2025-194K,2026-07-17T12:53:17.778048,15.05663192,.0001862,97.2844,50.1637,88.4627,271.6814,0,U,65443,999,4918,.20763E-3,.2942E-4,0
STARLINK-35049,2025-194L,2026-07-17T12:33:21.830976,15.05663608,.000231,97.2857,50.1821,97.0183,263.1308,0,U,65444,999,4918,.77035E-4,.1056E-4,0
STARLINK-35029,2025-194M,2026-07-17T12:25:23.623392,15.05657569,.0003039,97.2865,50.1912,84.7807,275.3768,0,U,65445,999,4918,.12876E-3,.1802E-4,0
STARLINK-34991,2025-194N,2026-07-17T02:39:13.648896,15.05658502,.0002583,97.2854,49.8260,86.8713,273.2810,0,U,65446,999,4912,.15433E-3,.2172E-4,0
STARLINK-34920,2025-194P,2026-07-17T13:33:10.943136,15.05655059,.0002592,97.2832,50.2791,85.2705,274.8819,0,U,65447,999,4919,.44686E-4,.589E-5,0
STARLINK-35030,2025-194Q,2026-07-17T12:41:20.029056,15.05663920,.0002211,97.2851,50.1731,79.9663,280.1814,0,U,65448,999,4918,.63848E-4,.865E-5,0
